IRIDIUM 150             
1 43257U 18030J   23260.73730789  .00000521  00000+0  17911-3 0  9999
2 43257  86.4029 349.8476 0002153  85.8546 274.2896 14.34220738286356
IRIDIUM 143             
1 43258U 18030K   23260.71828061  .00000517  00000+0  17770-3 0  9997
2 43258  86.4036 349.9085 0001922  95.5289 264.6126 14.34218765286296
IRIDIUM 161             
1 43478U 18047C   23260.74376795  .00000511  00000+0  14583-3 0  9997
2 43478  86.4532 147.8788 0002237  79.9915 280.1538 14.43277395280409
IRIDIUM 152             
1 43479U 18047D   23260.76076866  .00000154  00000+0  47891-4 0  9998
2 43479  86.4005 147.7318 0001834  85.2077 274.9329 14.34212426278673
IRIDIUM 147             
1 43480U 18047E   23260.20896212 -.00000033  00000+0 -18982-4 0  9991
2 43480  86.4012 147.9496 0002176  88.6891 271.4554 14.34216219278589
IRIDIUM 110             
1 43481U 18047F   23260.21530314  .00000493  00000+0  16915-3 0  9992
2 43481  86.4011 148.0129 0002360  80.5917 279.5546 14.34216705278578
IRIDIUM 162             
1 43482U 18047G   23260.18278516  .00000558  00000+0  15993-3 0  9999
2 43482  86.4532 148.0169 0002187  81.4035 278.7414 14.43275131280317
IRIDIUM 160             
1 43569U 18061A   23260.50998709  .00000429  00000+0  14612-3 0  9994
2 43569  86.3939 116.2748 0002075  92.7994 267.3439 14.34217125269517
